[
  {"id": 1, "name": "Sunshine Motors", "city": "Kansas City", "address": "123 Main St", "zip": "64101", "state": "Kansas"},
  {"id": 2, "name": "Midwest Auto Mall", "city": "St. Louis", "address": "456 Elm Ave", "zip": "63101", "state": "Missouri"},
  {"id": 3, "name": "Prairie Auto", "city": "Topeka", "address": "789 Oak Dr", "zip": "66603", "state": "Kansas"},
  {"id": 4, "name": "Gateway Cars", "city": "Springfield", "address": "101 Maple St", "zip": "65806", "state": "Missouri"},
  {"id": 5, "name": "Riverfront Motors", "city": "Wichita", "address": "202 River Rd", "zip": "67202", "state": "Kansas"},
  {"id": 6, "name": "Show-Me Autos", "city": "Columbia", "address": "303 College Ave", "zip": "65201", "state": "Missouri"},
  {"id": 7, "name": "Heartland Cars", "city": "Overland Park", "address": "404 Plaza Dr", "zip": "66212", "state": "Kansas"},
  {"id": 8, "name": "Metro Auto Group", "city": "Independence", "address": "505 Liberty St", "zip": "64050", "state": "Missouri"},
  {"id": 9, "name": "Jayhawk Motors", "city": "Lawrence", "address": "606 Jayhawk Blvd", "zip": "66044", "state": "Kansas"},
  {"id": 10, "name": "Ozark Auto Sales", "city": "Joplin", "address": "707 Ozark Ave", "zip": "64801", "state": "Missouri"},
  {"id": 11, "name": "Sunflower Cars", "city": "Manhattan", "address": "808 Aggieville Rd", "zip": "66502", "state": "Kansas"},
  {"id": 12, "name": "Archway Autos", "city": "St. Charles", "address": "909 Main St", "zip": "63301", "state": "Missouri"},
  {"id": 13, "name": "Flint Hills Motors", "city": "Emporia", "address": "111 Prairie St", "zip": "66801", "state": "Kansas"},
  {"id": 14, "name": "Showcase Cars", "city": "Blue Springs", "address": "222 Showcase Dr", "zip": "64014", "state": "Missouri"},
  {"id": 15, "name": "Pioneer Auto", "city": "Hutchinson", "address": "333 Pioneer Rd", "zip": "67501", "state": "Kansas"},
  {"id": 16, "name": "Route 66 Motors", "city": "Rolla", "address": "444 Route 66", "zip": "65401", "state": "Missouri"},
  {"id": 17, "name": "Capital City Cars", "city": "Jefferson City", "address": "555 Capitol Ave", "zip": "65101", "state": "Missouri"},
  {"id": 18, "name": "Great Plains Autos", "city": "Salina", "address": "666 Plains Rd", "zip": "67401", "state": "Kansas"},
  {"id": 19, "name": "Gateway Motors", "city": "St. Louis", "address": "777 Gateway Blvd", "zip": "63103", "state": "Missouri"},
  {"id": 20, "name": "Prairie View Cars", "city": "Lenexa", "address": "888 Prairie View Rd", "zip": "66215", "state": "Kansas"},
  {"id": 21, "name": "Liberty Auto", "city": "Liberty", "address": "999 Liberty Dr", "zip": "64068", "state": "Missouri"},
  {"id": 22, "name": "Wheat State Motors", "city": "Dodge City", "address": "1010 Wheat St", "zip": "67801", "state": "Kansas"},
  {"id": 23, "name": "Ozark Car Center", "city": "Branson", "address": "1111 Branson Ave", "zip": "65616", "state": "Missouri"},
  {"id": 24, "name": "Sunset Autos", "city": "Olathe", "address": "1212 Sunset Blvd", "zip": "66061", "state": "Kansas"},
  {"id": 25, "name": "Lakeside Motors", "city": "Lake Ozark", "address": "1313 Lakeside Dr", "zip": "65049", "state": "Missouri"},
  {"id": 26, "name": "Prairie Star Cars", "city": "Hays", "address": "1414 Star Ave", "zip": "67601", "state": "Kansas"},
  {"id": 27, "name": "Gateway Auto Plaza", "city": "Chesterfield", "address": "1515 Plaza Dr", "zip": "63017", "state": "Missouri"},
  {"id": 28, "name": "Sunrise Motors", "city": "Shawnee", "address": "1616 Sunrise St", "zip": "66203", "state": "Kansas"},
  {"id": 29, "name": "River City Cars", "city": "St. Joseph", "address": "1717 River Rd", "zip": "64501", "state": "Missouri"},
  {"id": 30, "name": "Prairie Lane Autos", "city": "Leavenworth", "address": "1818 Prairie Ln", "zip": "66048", "state": "Kansas"},
  {"id": 31, "name": "Show-Me Car Sales", "city": "Cape Girardeau", "address": "1919 Show-Me Dr", "zip": "63701", "state": "Missouri"},
  {"id": 32, "name": "Sunflower Auto Group", "city": "Gardner", "address": "2020 Sunflower Rd", "zip": "66030", "state": "Kansas"},
  {"id": 33, "name": "Ozark Auto Mall", "city": "Springfield", "address": "2121 Ozark Mall Dr", "zip": "65804", "state": "Missouri"},
  {"id": 34, "name": "Prairie Ridge Motors", "city": "Ottawa", "address": "2222 Ridge Rd", "zip": "66067", "state": "Kansas"},
  {"id": 35, "name": "Gateway Car Center", "city": "Florissant", "address": "2323 Gateway Dr", "zip": "63031", "state": "Missouri"},
  {"id": 36, "name": "Sunset Auto Sales", "city": "Mission", "address": "2424 Sunset Ave", "zip": "66202", "state": "Kansas"},
  {"id": 37, "name": "Riverfront Car Mall", "city": "Kansas City", "address": "2525 Riverfront Rd", "zip": "64120", "state": "Missouri"},
  {"id": 38, "name": "Prairie Auto Plaza", "city": "Emporia", "address": "2626 Prairie Plaza", "zip": "66801", "state": "Kansas"},
  {"id": 39, "name": "Show-Me Motors", "city": "St. Peters", "address": "2727 Show-Me Rd", "zip": "63376", "state": "Missouri"},
  {"id": 40, "name": "Sunflower Car Center", "city": "Derby", "address": "2828 Sunflower Dr", "zip": "67037", "state": "Kansas"},
  {"id": 41, "name": "Ozark Auto Group", "city": "Poplar Bluff", "address": "2929 Ozark Ave", "zip": "63901", "state": "Missouri"},
  {"id": 42, "name": "Prairie City Cars", "city": "Prairie Village", "address": "3030 Prairie City Rd", "zip": "66208", "state": "Kansas"},
  {"id": 43, "name": "Gateway Auto Sales", "city": "Ballwin", "address": "3131 Gateway Blvd", "zip": "63011", "state": "Missouri"},
  {"id": 44, "name": "Sunset Car Mall", "city": "Lenexa", "address": "3232 Sunset Mall Dr", "zip": "66215", "state": "Kansas"},
  {"id": 45, "name": "River City Motors", "city": "Columbia", "address": "3333 River City Rd", "zip": "65203", "state": "Missouri"},
  {"id": 46, "name": "Prairie View Auto", "city": "Olathe", "address": "3434 Prairie View Dr", "zip": "66061", "state": "Kansas"},
  {"id": 47, "name": "Show-Me Auto Group", "city": "Lee's Summit", "address": "3535 Show-Me Ave", "zip": "64063", "state": "Missouri"},
  {"id": 48, "name": "Sunflower Motors", "city": "Wichita", "address": "3636 Sunflower St", "zip": "67203", "state": "Kansas"},
  {"id": 49, "name": "Ozark Car Sales", "city": "Joplin", "address": "3737 Ozark Dr", "zip": "64804", "state": "Missouri"},
  {"id": 50, "name": "Prairie Lane Motors", "city": "Manhattan", "address": "3838 Prairie Ln", "zip": "66503", "state": "Kansas"},
  {"id": 51, "name": "Gateway Car Mall", "city": "St. Louis", "address": "3939 Gateway Mall Dr", "zip": "63110", "state": "Missouri"},
  {"id": 52, "name": "Sunset Auto Group", "city": "Shawnee", "address": "4040 Sunset Blvd", "zip": "66216", "state": "Kansas"},
  {"id": 53, "name": "Riverfront Auto Sales", "city": "Kansas City", "address": "4141 Riverfront Ave", "zip": "64111", "state": "Missouri"},
  {"id": 54, "name": "Prairie Star Motors", "city": "Hays", "address": "4242 Star Ave", "zip": "67601", "state": "Kansas"}
]
